IRIDIUM 156             
1 43576U 18061H   26194.62947319  .00000053  00000+0  11915-4 0  9992
2 43576  86.3935  45.6681 0002077  91.6329 268.5105 14.34217490417168
IRIDIUM 164             
1 43577U 18061J   26194.68021575  .00000144  00000+0  44452-4 0  9999
2 43577  86.3938  45.6880 0002307  89.1458 271.0002 14.34217861417217
IRIDIUM 159             
1 43578U 18061K   26194.64850032  .00000026  00000+0  20476-5 0  9994
2 43578  86.3935  45.6375 0002028  84.8160 275.3267 14.34217206417174
IRIDIUM 180             
1 43922U 19002A   26194.85730332  .00000111  00000+0  32459-4 0  9994
2 43922  86.3990 342.4481 0002192  90.9575 269.1872 14.34218152392811
IRIDIUM 176             
1 43923U 19002B   26194.87040510  .00000407  00000+0  60649-4 0  9999
2 43923  86.6110 342.3823 0002337  89.8177 270.3308 14.72248112403175
IRIDIUM 168             
1 43924U 19002C   26194.85095898 -.00000059  00000+0 -28253-4 0  9997
2 43924  86.3993 342.5287 0002232  92.1995 267.9456 14.34216677392797
IRIDIUM 173             
1 43925U 19002D   26194.83827485 -.00000079  00000+0 -35385-4 0  9997
2 43925  86.3987 342.4223 0002015  91.7650 268.3777 14.34216652392774
IRIDIUM 169             
1 43926U 19002E   26194.54428775  .00000031  00000+0  36535-5 0  9990
2 43926  86.4219  14.1703 0001834 101.8850 258.2554 14.38613087394010
IRIDIUM 172             
1 43927U 19002F   26194.83193286  .00000036  00000+0  56594-5 0  9991
2 43927  86.3987 342.4324 0002175  90.3710 269.7735 14.34217556392781
IRIDIUM 175             
1 43928U 19002G   26194.75400036  .00000173  00000+0  45133-4 0  9995
2 43928  86.4512 279.4166 0005253 118.1053 242.0680 14.43626737402813
IRIDIUM 171             
1 43929U 19002H   26194.88267324  .00000033  00000+0  47350-5 0  9990
2 43929  86.3996 342.7202 0002211  94.8588 265.2860 14.34217532392788
IRIDIUM 170             
1 43930U 19002J   26194.80860771  .00000400  00000+0  59533-4 0  9992
2 43930  86.6109 342.4104 0002281  86.2502 273.8976 14.72248578403170
IRIDIUM 167             
1 43931U 19002K   26194.80656191  .00000044  00000+0  86784-5 0  9995
2 43931  86.3990 342.4657 0002270  98.9559 261.1894 14.34217697392777
IRIDIUM 181             
1 56726U 23068S   26194.65960899  .00000181  00000+0  47812-4 0  9994
2 56726  86.4475  45.7203 0002407  83.7546 276.3929 14.43311757166253
IRIDIUM 177             
1 56727U 23068T   26194.82480595  .00000563  00000+0  70959-4 0  9996
2 56727  86.1985 316.1443 0002140  94.4975 265.6490 14.80029271170300
IRIDIUM 174             
1 56728U 23068U   26194.86414013  .00000420  00000+0  62772-4 0  9999
2 56728  86.6118 342.5372 0002008  86.6608 273.4839 14.72257255169945
IRIDIUM 178             
1 56729U 23068V   26194.88141091  .00000187  00000+0  21223-4 0  9991
2 56729  86.6535  14.2024 0002317  90.6394 269.5093 14.80025801170316
IRIDIUM 179             
1 56730U 23068W   26194.60561838  .00000259  00000+0  30715-4 0  9994
2 56730  86.6766  23.3754 0002314  93.6017 266.5469 14.80033242170274
